{
  "type": "FeatureCollection",
  "features": [
    {
      "type": "Feature",
      "properties": {
        "norad_id": 39227,
        "name": "ARIRANG-5 (KOMPSAT-5)",
        "group": "resource",
        "lat": -47.38780746193173,
        "lon": -9.473298175626113,
        "alt_km": 562.0855458619944,
        "timestamp": "2025-12-20T16:47:35.948398+00:00",
        "meta_object_name": "ARIRANG-5 (KOMPSAT-5)",
        "meta_object_id": "2013-042A",
        "meta_epoch": "2025-12-20T12:35:28.709376",
        "meta_mean_motion": 15.04538886,
        "meta_eccentricity": 0.0003404,
        "meta_inclination": 97.6154,
        "meta_ra_of_asc_node": 178.7168,
        "meta_arg_of_pericenter": 36.9917,
        "meta_mean_anomaly": 323.1543,
        "meta_ephemeris_type": 0,
        "meta_classification_type": "U",
        "meta_norad_cat_id": 39227,
        "meta_element_set_no": 999,
        "meta_rev_at_epoch": 67699,
        "meta_bstar": 0.00013671,
        "meta_mean_motion_dot": 1.855e-05,
        "meta_mean_motion_ddot": 0,
        "tle_line1": "1 39227U 13042A   25354.52463784  .00001855  00000+0  13671-3 0  9990",
        "tle_line2": "2 39227  97.6154 178.7168 0003404  36.9917 323.1543 15.04538886676997"
      },
      "geometry": {
        "type": "Point",
        "coordinates": [
          -9.473298175626113,
          -47.38780746193173
        ]
      }
    },
    {
      "type": "Feature",
      "properties": {
        "norad_id": 39418,
        "name": "SKYSAT-A",
        "group": "resource",
        "lat": 80.47833231092699,
        "lon": -6.219450530491006,
        "alt_km": 531.9010365401773,
        "timestamp": "2025-12-20T16:47:35.948408+00:00",
        "meta_object_name": "SKYSAT-A",
        "meta_object_id": "2013-066C",
        "meta_epoch": "2025-12-20T02:07:24.987360",
        "meta_mean_motion": 15.11653345,
        "meta_eccentricity": 0.0021262,
        "meta_inclination": 97.4098,
        "meta_ra_of_asc_node": 44.0738,
        "meta_arg_of_pericenter": 209.9149,
        "meta_mean_anomaly": 150.0868,
        "meta_ephemeris_type": 0,
        "meta_classification_type": "U",
        "meta_norad_cat_id": 39418,
        "meta_element_set_no": 999,
        "meta_rev_at_epoch": 66141,
        "meta_bstar": 0.00017332643,
        "meta_mean_motion_dot": 2.899e-05,
        "meta_mean_motion_ddot": 0,
        "tle_line1": "1 39418U 13066C   25354.08848365  .00002899  00000+0  17333-3 0  9999",
        "tle_line2": "2 39418  97.4098  44.0738 0021262 209.9149 150.0868 15.11653345661417"
      },
      "geometry": {
        "type": "Point",
        "coordinates": [
          -6.219450530491006,
          80.47833231092699
        ]
      }
    },
    {
      "type": "Feature",
      "properties": {
        "norad_id": 39419,
        "name": "DUBAISAT-2",
        "group": "resource",
        "lat": 45.730472738440874,
        "lon": 172.56991274494206,
        "alt_km": 543.4916708529972,
        "timestamp": "2025-12-20T16:47:35.948418+00:00",
        "meta_object_name": "DUBAISAT-2",
        "meta_object_id": "2013-066D",
        "meta_epoch": "2025-12-20T13:01:04.172160",
        "meta_mean_motion": 15.08423501,
        "meta_eccentricity": 0.0010014,
        "meta_inclination": 97.4438,
        "meta_ra_of_asc_node": 344.7096,
        "meta_arg_of_pericenter": 291.4901,
        "meta_mean_anomaly": 68.5259,
        "meta_ephemeris_type": 0,
        "meta_classification_type": "U",
        "meta_norad_cat_id": 39419,
        "meta_element_set_no": 999,
        "meta_rev_at_epoch": 65944,
        "meta_bstar": 0.00021628,
        "meta_mean_motion_dot": 3.308e-05,
        "meta_mean_motion_ddot": 0,
        "tle_line1": "1 39419U 13066D   25354.54240940  .00003308  00000+0  21628-3 0  9994",
        "tle_line2": "2 39419  97.4438 344.7096 0010014 291.4901  68.5259 15.08423501659440"
      },
      "geometry": {
        "type": "Point",
        "coordinates": [
          172.56991274494206,
          45.730472738440874
        ]
      }
    },
    {
      "type": "Feature",
      "properties": {
        "norad_id": 39574,
        "name": "GPM-CORE",
        "group": "resource",
        "lat": -57.63948047938271,
        "lon": 53.534160014093395,
        "alt_km": 432.3286800979786,
        "timestamp": "2025-12-20T16:47:35.948429+00:00",
        "meta_object_name": "GPM-CORE",
        "meta_object_id": "2014-009C",
        "meta_epoch": "2025-12-20T11:03:28.031040",
        "meta_mean_motion": 15.4457481,
        "meta_eccentricity": 0.0009368,
        "meta_inclination": 64.9718,
        "meta_ra_of_asc_node": 186.8259,
        "meta_arg_of_pericenter": 248.1958,
        "meta_mean_anomaly": 111.8186,
        "meta_ephemeris_type": 0,
        "meta_classification_type": "U",
        "meta_norad_cat_id": 39574,
        "meta_element_set_no": 999,
        "meta_rev_at_epoch": 67020,
        "meta_bstar": 0.00012372,
        "meta_mean_motion_dot": 5.535e-05,
        "meta_mean_motion_ddot": 0,
        "tle_line1": "1 39574U 14009C   25354.46074110  .00005535  00000+0  12372-3 0  9999",
        "tle_line2": "2 39574  64.9718 186.8259 0009368 248.1958 111.8186 15.44574810670207"
      },
      "geometry": {
        "type": "Point",
        "coordinates": [
          53.534160014093395,
          -57.63948047938271
        ]
      }
    },
    {
      "type": "Feature",
      "properties": {
        "norad_id": 39634,
        "name": "SENTINEL-1A",
        "group": "resource",
        "lat": 25.671915701569862,
        "lon": -176.21204131053224,
        "alt_km": 694.6179228788851,
        "timestamp": "2025-12-20T16:47:35.948439+00:00",
        "meta_object_name": "SENTINEL-1A",
        "meta_object_id": "2014-016A",
        "meta_epoch": "2025-12-20T12:47:55.850784",
        "meta_mean_motion": 14.59202545,
        "meta_eccentricity": 0.0001279,
        "meta_inclination": 98.1795,
        "meta_ra_of_asc_node": 359.6597,
        "meta_arg_of_pericenter": 83.3049,
        "meta_mean_anomaly": 276.8297,
        "meta_ephemeris_type": 0,
        "meta_classification_type": "U",
        "meta_norad_cat_id": 39634,
        "meta_element_set_no": 999,
        "meta_rev_at_epoch": 62396,
        "meta_bstar": 5.1756e-05,
        "meta_mean_motion_dot": 1.98e-06,
        "meta_mean_motion_ddot": 0,
        "tle_line1": "1 39634U 14016A   25354.53328531  .00000198  00000+0  51756-4 0  9991",
        "tle_line2": "2 39634  98.1795 359.6597 0001279  83.3049 276.8297 14.59202545623960"
      },
      "geometry": {
        "type": "Point",
        "coordinates": [
          -176.21204131053224,
          25.671915701569862
        ]
      }
    },
    {
      "type": "Feature",
      "properties": {
        "norad_id": 39731,
        "name": "KAZEOSAT 1",
        "group": "resource",
        "lat": -1.9299124124748392,
        "lon": 66.71231269544654,
        "alt_km": 754.9945502327719,
        "timestamp": "2025-12-20T16:47:35.948449+00:00",
        "meta_object_name": "KAZEOSAT 1",
        "meta_object_id": "2014-024A",
        "meta_epoch": "2025-12-20T11:48:23.773248",
        "meta_mean_motion": 14.42067039,
        "meta_eccentricity": 0.0001182,
        "meta_inclination": 98.3432,
        "meta_ra_of_asc_node": 66.2259,
        "meta_arg_of_pericenter": 96.5224,
        "meta_mean_anomaly": 263.61,
        "meta_ephemeris_type": 0,
        "meta_classification_type": "U",
        "meta_norad_cat_id": 39731,
        "meta_element_set_no": 999,
        "meta_rev_at_epoch": 61280,
        "meta_bstar": 0.00010552,
        "meta_mean_motion_dot": 3.04e-06,
        "meta_mean_motion_ddot": 0,
        "tle_line1": "1 39731U 14024A   25354.49194182  .00000304  00000+0  10552-3 0  9993",
        "tle_line2": "2 39731  98.3432  66.2259 0001182  96.5224 263.6100 14.42067039612805"
      },
      "geometry": {
        "type": "Point",
        "coordinates": [
          66.71231269544654,
          -1.9299124124748392
        ]
      }
    },
    {
      "type": "Feature",
      "properties": {
        "norad_id": 39766,
        "name": "ALOS-2",
        "group": "resource",
        "lat": -51.74313213387967,
        "lon": -100.73973625529091,
        "alt_km": 638.676392091008,
        "timestamp": "2025-12-20T16:47:35.948459+00:00",
        "meta_object_name": "ALOS-2",
        "meta_object_id": "2014-029A",
        "meta_epoch": "2025-12-20T12:29:59.623008",
        "meta_mean_motion": 14.79472535,
        "meta_eccentricity": 0.0001438,
        "meta_inclination": 97.9232,
        "meta_ra_of_asc_node": 89.2567,
        "meta_arg_of_pericenter": 96.8413,
        "meta_mean_anomaly": 263.2962,
        "meta_ephemeris_type": 0,
        "meta_classification_type": "U",
        "meta_norad_cat_id": 39766,
        "meta_element_set_no": 999,
        "meta_rev_at_epoch": 62516,
        "meta_bstar": 0.00030814,
        "meta_mean_motion_dot": 2.251e-05,
        "meta_mean_motion_ddot": 0,
        "tle_line1": "1 39766U 14029A   25354.52082897  .00002251  00000+0  30814-3 0  9995",
        "tle_line2": "2 39766  97.9232  89.2567 0001438  96.8413 263.2962 14.79472535625166"
      },
      "geometry": {
        "type": "Point",
        "coordinates": [
          -100.73973625529091,
          -51.74313213387967
        ]
      }
    }
  ]
}